[{"OBJECT_NAME":"LYNK TOWER 3","OBJECT_ID":"2023-001AP","EPOCH":"2026-03-09T16:30:02.373408","MEAN_MOTION":15.34026505,"ECCENTRICITY":0.00098594,"INCLINATION":97.3321,"RA_OF_ASC_NODE":129.5399,"ARG_OF_PERICENTER":112.8813,"MEAN_ANOMALY":247.3472,"EPHEMERIS_TYPE":0,"CLASSIFICATION_TYPE":"U","NORAD_CAT_ID":55046,"ELEMENT_SET_NO":999,"REV_AT_EPOCH":17664,"BSTAR":0.00042323634,"MEAN_MOTION_DOT":0.00013886,"MEAN_MOTION_DDOT":0},{"OBJECT_NAME":"STARLINK-34304","OBJECT_ID":"2025-117X","EPOCH":"2026-03-09T22:17:23.165376","MEAN_MOTION":15.30226831,"ECCENTRICITY":0.00020676,"INCLINATION":53.1606,"RA_OF_ASC_NODE":38.3954,"ARG_OF_PERICENTER":95.6566,"MEAN_ANOMALY":264.4671,"EPHEMERIS_TYPE":0,"CLASSIFICATION_TYPE":"U","NORAD_CAT_ID":64224,"ELEMENT_SET_NO":999,"REV_AT_EPOCH":4459,"BSTAR":0.0014177818,"MEAN_MOTION_DOT":0.00041904,"MEAN_MOTION_DDOT":0}]
